STARLINK-2680
1 18432C 21040E   21326.18211808 -.00009412  00000-0 -63049-3 0  3268
2 18432  53.0555 347.9146 0001869  55.0797 345.5198 15.06414893    14
